CCSDS_OMM_VERS = 2.0
CREATION_DATE  = 
ORIGINATOR     = 

OBJECT_NAME    = STARLINK-36268
OBJECT_ID      = 2025-304H
CENTER_NAME    = EARTH
REF_FRAME      = TEME
TIME_SYSTEM    = UTC
MEAN_ELEMENT_THEORY = SGP/SGP4

EPOCH          = 2026-01-09T10:48:42.936480
MEAN_MOTION    = 15.52557375
ECCENTRICITY   = .00031186
INCLINATION    = 70.0001
RA_OF_ASC_NODE = 329.7271
ARG_OF_PERICENTER = 273.1822
MEAN_ANOMALY   = 86.9008

EPHEMERIS_TYPE = 0
CLASSIFICATION_TYPE = U
NORAD_CAT_ID   = 67199
ELEMENT_SET_NO = 999
REV_AT_EPOCH   = 486
BSTAR          = .15981058E-2
MEAN_MOTION_DOT = .99524E-3
MEAN_MOTION_DDOT = 0

CCSDS_OMM_VERS = 2.0
CREATION_DATE  = 
ORIGINATOR     = 

OBJECT_NAME    = STARLINK-36270
OBJECT_ID      = 2025-304J
CENTER_NAME    = EARTH
REF_FRAME      = TEME
TIME_SYSTEM    = UTC
MEAN_ELEMENT_THEORY = SGP/SGP4

EPOCH          = 2026-01-09T14:00:01.999872
MEAN_MOTION    = 15.42696211
ECCENTRICITY   = .0003272
INCLINATION    = 69.9998
RA_OF_ASC_NODE = 329.4779
ARG_OF_PERICENTER = 277.8301
MEAN_ANOMALY   = 4.3042

EPHEMERIS_TYPE = 0
CLASSIFICATION_TYPE = U
NORAD_CAT_ID   = 67200
ELEMENT_SET_NO = 999
REV_AT_EPOCH   = 494
BSTAR          = .42965524E-4
MEAN_MOTION_DOT = .1733E-4
MEAN_MOTION_DDOT = 0

CCSDS_OMM_VERS = 2.0
CREATION_DATE  = 
ORIGINATOR     = 

OBJECT_NAME    = STARLINK-36262
OBJECT_ID      = 2025-304K
CENTER_NAME    = EARTH
REF_FRAME      = TEME
TIME_SYSTEM    = UTC
MEAN_ELEMENT_THEORY = SGP/SGP4

EPOCH          = 2026-01-09T14:00:01.999872
MEAN_MOTION    = 15.42688760
ECCENTRICITY   = .00031697
INCLINATION    = 69.9998
RA_OF_ASC_NODE = 329.4270
ARG_OF_PERICENTER = 265.0181
MEAN_ANOMALY   = 62.1080

EPHEMERIS_TYPE = 0
CLASSIFICATION_TYPE = U
NORAD_CAT_ID   = 67201
ELEMENT_SET_NO = 999
REV_AT_EPOCH   = 494
BSTAR          = .34865655E-3
MEAN_MOTION_DOT = .15138E-3
MEAN_MOTION_DDOT = 0

CCSDS_OMM_VERS = 2.0
CREATION_DATE  = 
ORIGINATOR     = 

OBJECT_NAME    = STARLINK-36263
OBJECT_ID      = 2025-304L
CENTER_NAME    = EARTH
REF_FRAME      = TEME
TIME_SYSTEM    = UTC
MEAN_ELEMENT_THEORY = SGP/SGP4

EPOCH          = 2026-01-09T14:00:01.999872
MEAN_MOTION    = 15.45483526
ECCENTRICITY   = .00033896
INCLINATION    = 69.9999
RA_OF_ASC_NODE = 329.3753
ARG_OF_PERICENTER = 261.2411
MEAN_ANOMALY   = 107.6909

EPHEMERIS_TYPE = 0
CLASSIFICATION_TYPE = U
NORAD_CAT_ID   = 67202
ELEMENT_SET_NO = 999
REV_AT_EPOCH   = 494
BSTAR          = -.42465961E-1
MEAN_MOTION_DOT = -.1840703E-1
MEAN_MOTION_DDOT = 0

CCSDS_OMM_VERS = 2.0
CREATION_DATE  = 
ORIGINATOR     = 

OBJECT_NAME    = STARLINK-36224
OBJECT_ID      = 2025-304M
CENTER_NAME    = EARTH
REF_FRAME      = TEME
TIME_SYSTEM    = UTC
MEAN_ELEMENT_THEORY = SGP/SGP4

EPOCH          = 2026-01-09T10:46:49.168416
MEAN_MOTION    = 15.52192810
ECCENTRICITY   = .00034067
INCLINATION    = 70.0000
RA_OF_ASC_NODE = 329.7222
ARG_OF_PERICENTER = 278.8889
MEAN_ANOMALY   = 81.1912

EPHEMERIS_TYPE = 0
CLASSIFICATION_TYPE = U
NORAD_CAT_ID   = 67203
ELEMENT_SET_NO = 999
REV_AT_EPOCH   = 486
BSTAR          = -.20827316E-2
MEAN_MOTION_DOT = -.124843E-2
MEAN_MOTION_DDOT = 0

CCSDS_OMM_VERS = 2.0
CREATION_DATE  = 
ORIGINATOR     = 

OBJECT_NAME    = STARLINK-36185
OBJECT_ID      = 2025-304N
CENTER_NAME    = EARTH
REF_FRAME      = TEME
TIME_SYSTEM    = UTC
MEAN_ELEMENT_THEORY = SGP/SGP4

EPOCH          = 2026-01-09T10:46:14.626560
MEAN_MOTION    = 15.52536957
ECCENTRICITY   = .00030784
INCLINATION    = 70.0000
RA_OF_ASC_NODE = 329.7204
ARG_OF_PERICENTER = 273.4663
MEAN_ANOMALY   = 86.6172

EPHEMERIS_TYPE = 0
CLASSIFICATION_TYPE = U
NORAD_CAT_ID   = 67204
ELEMENT_SET_NO = 999
REV_AT_EPOCH   = 486
BSTAR          = .13277456E-2
MEAN_MOTION_DOT = .82419E-3
MEAN_MOTION_DDOT = 0

CCSDS_OMM_VERS = 2.0
CREATION_DATE  = 
ORIGINATOR     = 

OBJECT_NAME    = STARLINK-36197
OBJECT_ID      = 2025-304P
CENTER_NAME    = EARTH
REF_FRAME      = TEME
TIME_SYSTEM    = UTC
MEAN_ELEMENT_THEORY = SGP/SGP4

EPOCH          = 2026-01-09T10:45:44.993952
MEAN_MOTION    = 15.52546433
ECCENTRICITY   = .00032798
INCLINATION    = 70.0000
RA_OF_ASC_NODE = 329.7192
ARG_OF_PERICENTER = 264.1867
MEAN_ANOMALY   = 95.8946

EPHEMERIS_TYPE = 0
CLASSIFICATION_TYPE = U
NORAD_CAT_ID   = 67205
ELEMENT_SET_NO = 999
REV_AT_EPOCH   = 483
BSTAR          = .8117229E-3
MEAN_MOTION_DOT = .50135E-3
MEAN_MOTION_DDOT = 0

CCSDS_OMM_VERS = 2.0
CREATION_DATE  = 
ORIGINATOR     = 

OBJECT_NAME    = STARLINK-36056
OBJECT_ID      = 2025-304Q
CENTER_NAME    = EARTH
REF_FRAME      = TEME
TIME_SYSTEM    = UTC
MEAN_ELEMENT_THEORY = SGP/SGP4

EPOCH          = 2026-01-09T10:45:15.412320
MEAN_MOTION    = 15.52545803
ECCENTRICITY   = .00032882
INCLINATION    = 70.0002
RA_OF_ASC_NODE = 329.7178
ARG_OF_PERICENTER = 270.6634
MEAN_ANOMALY   = 89.4176

EPHEMERIS_TYPE = 0
CLASSIFICATION_TYPE = U
NORAD_CAT_ID   = 67206
ELEMENT_SET_NO = 999
REV_AT_EPOCH   = 483
BSTAR          = .86022419E-3
MEAN_MOTION_DOT = .5316E-3
MEAN_MOTION_DDOT = 0

CCSDS_OMM_VERS = 2.0
CREATION_DATE  = 
ORIGINATOR     = 

OBJECT_NAME    = STARLINK-36225
OBJECT_ID      = 2025-304R
CENTER_NAME    = EARTH
REF_FRAME      = TEME
TIME_SYSTEM    = UTC
MEAN_ELEMENT_THEORY = SGP/SGP4

EPOCH          = 2026-01-09T10:44:46.057920
MEAN_MOTION    = 15.52539004
ECCENTRICITY   = .0003231
INCLINATION    = 70.0000
RA_OF_ASC_NODE = 329.7167
ARG_OF_PERICENTER = 273.9274
MEAN_ANOMALY   = 86.1543

EPHEMERIS_TYPE = 0
CLASSIFICATION_TYPE = U
NORAD_CAT_ID   = 67207
ELEMENT_SET_NO = 999
REV_AT_EPOCH   = 486
BSTAR          = .1040449E-2
MEAN_MOTION_DOT = .64408E-3
MEAN_MOTION_DDOT = 0

CCSDS_OMM_VERS = 2.0
CREATION_DATE  = 
ORIGINATOR     = 

OBJECT_NAME    = STARLINK-36265
OBJECT_ID      = 2025-304S
CENTER_NAME    = EARTH
REF_FRAME      = TEME
TIME_SYSTEM    = UTC
MEAN_ELEMENT_THEORY = SGP/SGP4

EPOCH          = 2026-01-09T14:00:01.999872
MEAN_MOTION    = 15.42689245
ECCENTRICITY   = .00029658
INCLINATION    = 69.9999
RA_OF_ASC_NODE = 329.4137
ARG_OF_PERICENTER = 266.4400
MEAN_ANOMALY   = 71.6903

EPHEMERIS_TYPE = 0
CLASSIFICATION_TYPE = U
NORAD_CAT_ID   = 67208
ELEMENT_SET_NO = 999
REV_AT_EPOCH   = 494
BSTAR          = .29208146E-3
MEAN_MOTION_DOT = .12653E-3
MEAN_MOTION_DDOT = 0

CCSDS_OMM_VERS = 2.0
CREATION_DATE  = 
ORIGINATOR     = 

OBJECT_NAME    = STARLINK-36226
OBJECT_ID      = 2025-304T
CENTER_NAME    = EARTH
REF_FRAME      = TEME
TIME_SYSTEM    = UTC
MEAN_ELEMENT_THEORY = SGP/SGP4

EPOCH          = 2026-01-09T14:00:01.999872
MEAN_MOTION    = 15.45542635
ECCENTRICITY   = .00038343
INCLINATION    = 70.0000
RA_OF_ASC_NODE = 329.3619
ARG_OF_PERICENTER = 276.8335
MEAN_ANOMALY   = 103.6713

EPHEMERIS_TYPE = 0
CLASSIFICATION_TYPE = U
NORAD_CAT_ID   = 67209
ELEMENT_SET_NO = 999
REV_AT_EPOCH   = 494
BSTAR          = -.56997026E-1
MEAN_MOTION_DOT = -.2441865E-1
MEAN_MOTION_DDOT = 0

CCSDS_OMM_VERS = 2.0
CREATION_DATE  = 
ORIGINATOR     = 

OBJECT_NAME    = STARLINK-36173
OBJECT_ID      = 2025-304U
CENTER_NAME    = EARTH
REF_FRAME      = TEME
TIME_SYSTEM    = UTC
MEAN_ELEMENT_THEORY = SGP/SGP4

EPOCH          = 2026-01-09T10:43:24.566304
MEAN_MOTION    = 15.52008868
ECCENTRICITY   = .00024266
INCLINATION    = 70.0000
RA_OF_ASC_NODE = 329.7126
ARG_OF_PERICENTER = 266.2083
MEAN_ANOMALY   = 93.8827

EPHEMERIS_TYPE = 0
CLASSIFICATION_TYPE = U
NORAD_CAT_ID   = 67210
ELEMENT_SET_NO = 999
REV_AT_EPOCH   = 486
BSTAR          = -.31027451E-2
MEAN_MOTION_DOT = -.183307E-2
MEAN_MOTION_DDOT = 0

