STARLINK-36268          
1 67199U 25304H   26009.45049695  .00099524  00000+0  15981-2 0  9999
2 67199  70.0001 329.7271 0003118 273.1822  86.9008 15.52557375  4865
STARLINK-36270          
1 67200U 25304J   26009.58335648  .00001733  00000+0  42966-4 0  9992
2 67200  69.9998 329.4779 0003272 277.8301   4.3042 15.42696211  4947
STARLINK-36262          
1 67201U 25304K   26009.58335648  .00015138  00000+0  34866-3 0  9996
2 67201  69.9998 329.4270 0003169 265.0181  62.1080 15.42688760  4948
STARLINK-36263          
1 67202U 25304L   26009.58335648 -.01840703  00000+0 -42466-1 0  9997
2 67202  69.9999 329.3753 0003389 261.2411 107.6909 15.45483526  4944
STARLINK-36224          
1 67203U 25304M   26009.44918019 -.00124843  00000+0 -20827-2 0  9999
2 67203  70.0000 329.7222 0003406 278.8889  81.1912 15.52192810  4861
STARLINK-36185          
1 67204U 25304N   26009.44878040  .00082419  00000+0  13277-2 0  9990
2 67204  70.0000 329.7204 0003078 273.4663  86.6172 15.52536957  4860
STARLINK-36197          
1 67205U 25304P   26009.44843743  .00050135  00000+0  81172-3 0  9993
2 67205  70.0000 329.7192 0003279 264.1867  95.8946 15.52546433  4831
STARLINK-36056          
1 67206U 25304Q   26009.44809505  .00053160  00000+0  86022-3 0  9992
2 67206  70.0002 329.7178 0003288 270.6634  89.4176 15.52545803  4836
STARLINK-36225          
1 67207U 25304R   26009.44775530  .00064408  00000+0  10404-2 0  9990
2 67207  70.0000 329.7167 0003231 273.9274  86.1543 15.52539004  4868
STARLINK-36265          
1 67208U 25304S   26009.58335648  .00012653  00000+0  29208-3 0  9996
2 67208  69.9999 329.4137 0002965 266.4400  71.6903 15.42689245  4948
STARLINK-36226          
1 67209U 25304T   26009.58335648 -.02441865  00000+0 -56997-1 0  9995
2 67209  70.0000 329.3619 0003834 276.8335 103.6713 15.45542635  4946
STARLINK-36173          
1 67210U 25304U   26009.44681211 -.00183307  00000+0 -31027-2 0  9992
2 67210  70.0000 329.7126 0002426 266.2083  93.8827 15.52008868  4864
